[{"OBJECT_NAME":"STARLINK-34046","OBJECT_ID":"2025-102P","EPOCH":"2026-03-09T12:40:58.076544","MEAN_MOTION":14.98301012,"ECCENTRICITY":0.00040357,"INCLINATION":70.0013,"RA_OF_ASC_NODE":114.9216,"ARG_OF_PERICENTER":239.0821,"MEAN_ANOMALY":120.9941,"EPHEMERIS_TYPE":0,"CLASSIFICATION_TYPE":"U","NORAD_CAT_ID":64035,"ELEMENT_SET_NO":999,"REV_AT_EPOCH":4570,"BSTAR":-0.00069639287,"MEAN_MOTION_DOT":-8.387e-5,"MEAN_MOTION_DDOT":0},{"OBJECT_NAME":"CZ-6A DEB","OBJECT_ID":"2024-140DR","EPOCH":"2026-03-09T19:52:08.590080","MEAN_MOTION":14.67947666,"ECCENTRICITY":0.01507927,"INCLINATION":88.8745,"RA_OF_ASC_NODE":272.0518,"ARG_OF_PERICENTER":194.3001,"MEAN_ANOMALY":165.3928,"EPHEMERIS_TYPE":0,"CLASSIFICATION_TYPE":"U","NORAD_CAT_ID":60712,"ELEMENT_SET_NO":999,"REV_AT_EPOCH":8418,"BSTAR":0.00048384555,"MEAN_MOTION_DOT":3.311e-5,"MEAN_MOTION_DDOT":0}]
